[{"OBJECT_NAME":"STARLINK-35018","OBJECT_ID":"2025-184R","EPOCH":"2026-03-09T16:45:02.727072","MEAN_MOTION":15.05656306,"ECCENTRICITY":0.00014479,"INCLINATION":97.6039,"RA_OF_ASC_NODE":122.6932,"ARG_OF_PERICENTER":84.7291,"MEAN_ANOMALY":275.4101,"EPHEMERIS_TYPE":0,"CLASSIFICATION_TYPE":"U","NORAD_CAT_ID":65288,"ELEMENT_SET_NO":999,"REV_AT_EPOCH":3130,"BSTAR":0.00048497413,"MEAN_MOTION_DOT":6.945e-5,"MEAN_MOTION_DDOT":0},{"OBJECT_NAME":"IRIDIUM 33 DEB","OBJECT_ID":"1997-051QE","EPOCH":"2026-03-07T09:35:18.798432","MEAN_MOTION":15.07266806,"ECCENTRICITY":0.0013423,"INCLINATION":86.3519,"RA_OF_ASC_NODE":312.8742,"ARG_OF_PERICENTER":171.2899,"MEAN_ANOMALY":188.8573,"EPHEMERIS_TYPE":0,"CLASSIFICATION_TYPE":"U","NORAD_CAT_ID":35484,"ELEMENT_SET_NO":999,"REV_AT_EPOCH":63287,"BSTAR":0.0040001,"MEAN_MOTION_DOT":0.00060878,"MEAN_MOTION_DDOT":0}]
